Country,School_Name,City ,STATE,Address_Postcode, Oranisation type
Australia ,Mount Erin Secondary College,Frankston South,Victoria,3199,School
Australia ,Box Hill Senior Secondary College,Mont Albert North,Victoria,3129,School
Australia ,Edgars Creek Secondary College,Wollert,Victoria,3750,School
Australia ,Elevation Secondary College,Craigieburn,Victoria,3064,School
Australia ,Clyde Secondary College,Clyde,Victoria,3978,School
Australia ,Cobden Technical School,Cobden,Victoria,3266,School
Australia ,Lyndhurst Secondary College,Cranbourne,Victoria,3977,School
Australia ,Daylesford Secondary College,Daylesford,Victoria,3460,School
Australia ,Dromana Secondary College,Dromana,Victoria,3936,School
Australia ,Grovedale College,Grovedale,Victoria,3216,School
Australia ,Irymple Secondary College,Irymple,Victoria,3498,School
Australia ,Crusoe 7-10 Secondary College,Kangaroo Flat,Victoria,3555,School
Australia ,Peter Lalor Secondary College,Lalor,Victoria,3075,School
Australia ,Lilydale Heights College,Lilydale,Victoria,3140,School
Australia ,Staughton College,Melton South,Victoria,3338,School
Australia ,Chaffey Secondary College,Mildura,Victoria,3500,School
Australia ,Bentleigh Secondary College,Bentleigh East,Victoria,3165,School
Australia ,Mount Clear College,Mount Clear,Victoria,3353,School
Australia ,Rosehill Secondary College,Niddrie,Victoria,3042,School
Australia ,Northern College of the Arts and Technology,Preston,Victoria,3072,School
Australia ,Swinburne Senior Secondary College,Hawthorn,Victoria,3122,School
Australia ,Victorian College Of The Arts Secondary School,Southbank,Victoria,3006,School
Australia ,Brauer Secondary College,Warrnambool,Victoria,3280,School
Australia ,Wyndham Central Secondary College,Werribee,Victoria,3030,School
Australia ,Weeroona College Bendigo,Bendigo,Victoria,3550,School
Australia ,Whittlesea Secondary College,Whittlesea,Victoria,3757,School
Australia ,Alexandra Secondary College,Alexandra,Victoria,3714,School
Australia ,Auburn High School,Hawthorn East,Victoria,3123,School
Australia ,Ballarat High School,Ballarat,Victoria,3350,School
Australia ,Balwyn High School,Balwyn North,Victoria,3104,School
Australia ,Bayswater Secondary College,Bayswater,Victoria,3153,School
Australia ,Beaufort Secondary College,Beaufort,Victoria,3373,School
Australia ,Beaumaris Secondary College,Beaumaris,Victoria,3193,School
Australia ,Beechworth Secondary College,Beechworth,Victoria,3747,School
Australia ,Belmont High School,Belmont,Victoria,3216,School
Australia ,Bendigo Senior Secondary College,Bendigo,Victoria,3550,School
Australia ,Berwick Secondary College,Berwick,Victoria,3806,School
Australia ,Blackburn High School,Blackburn,Victoria,3130,School
Australia ,Box Hill High School,Box Hill,Victoria,3128,School
Australia ,Braybrook College,Braybrook,Victoria,3019,School
Australia ,Brentwood Secondary College,Glen Waverley,Victoria,3150,School
Australia ,Brighton Secondary College,Brighton East,Victoria,3187,School
Australia ,Broadford Secondary College,Broadford,Victoria,3658,School
Australia ,Buckley Park College,Essendon,Victoria,3040,School
Australia ,Camberwell High School,Canterbury,Victoria,3126,School
Australia ,Canterbury Girls Secondary College,Canterbury,Victoria,3126,School
Australia ,Casterton Secondary College,Casterton,Victoria,3311,School
Australia ,Cheltenham Secondary College,Cheltenham,Victoria,3192,School
Australia ,Cobram Secondary College,Cobram,Victoria,3644,School
Australia ,Cohuna Secondary College,Cohuna,Victoria,3568,School
Australia ,Cranbourne Secondary College,Cranbourne,Victoria,3977,School
Australia ,Cranbourne West Secondary College,Cranbourne West,Victoria,3977,School
Australia ,Croydon Community School,Croydon,Victoria,3136,School
Australia ,Mount Alexander 7-12 College,Flemington,Victoria,3031,School
Australia ,Dimboola Memorial Secondary College,Dimboola,Victoria,3414,School
Australia ,East Doncaster Secondary College,Doncaster East,Victoria,3109,School
Australia ,Donald High School,Donald,Victoria,3480,School
Australia ,Doncaster Secondary College,Doncaster,Victoria,3108,School
Australia ,Drouin Secondary College,Drouin,Victoria,3818,School
Australia ,Eaglehawk Secondary College,Eaglehawk,Victoria,3556,School
Australia ,Eltham High School,Eltham,Victoria,3095,School
Australia ,Elwood College,Elwood,Victoria,3184,School
Australia ,Epping Secondary College,Epping,Victoria,3076,School
Australia ,Euroa Secondary College,Euroa,Victoria,3666,School
Australia ,Fairhills High School,Knoxfield,Victoria,3180,School
Australia ,Bendigo South East 7-10 Secondary College,Bendigo,Victoria,3550,School
Australia ,Port Melbourne Secondary College,Port Melbourne,Victoria,3207,School
Australia ,Footscray High School,Footscray,Victoria,3011,School
Australia ,Foster Secondary College,Foster,Victoria,3960,School
Australia ,Frankston High School,Frankston,Victoria,3199,School
Australia ,Geelong High School,East Geelong,Victoria,3219,School
Australia ,North Geelong Secondary College,North Geelong,Victoria,3215,School
Australia ,Gisborne Secondary College,Gisborne,Victoria,3437,School
Australia ,Gladstone Park Secondary College,Gladstone Park,Victoria,3043,School
Australia ,Bundoora Secondary College,Bundoora,Victoria,3083,School
Australia ,Greater Shepparton Secondary College,Shepparton,Victoria,3630,School
Australia ,Western Port Secondary College,Hastings,Victoria,3915,School
Australia ,Healesville High School,Healesville,Victoria,3777,School
Australia ,Heywood District Secondary College,Heywood,Victoria,3304,School
Australia ,Highvale Secondary College,Glen Waverley,Victoria,3150,School
Australia ,Kerang Technical High School,Kerang,Victoria,3579,School
Australia ,Kensington Community High School,Kensington,Victoria,3031,School
Australia ,Kew High School,Kew East,Victoria,3102,School
Australia ,Koonung Secondary College,Mont Albert North,Victoria,3129,School
Australia ,Koo Wee Rup Secondary College,Koo Wee Rup,Victoria,3981,School
Australia ,Korumburra Secondary College,Korumburra,Victoria,3950,School
Australia ,Kyneton High School,Kyneton,Victoria,3444,School
Australia ,Lalor Secondary College,Lalor,Victoria,3075,School
Australia ,Lalor North Secondary College,Epping,Victoria,3076,School
Australia ,Lilydale High School,Lilydale,Victoria,3140,School
Australia ,Lyndale Secondary College,Dandenong North,Victoria,3175,School
Australia ,Lynall Hall Community School,Richmond,Victoria,3121,School
Australia ,Maffra Secondary College,Maffra,Victoria,3860,School
Australia ,Mansfield Secondary College,Mansfield,Victoria,3722,School
Australia ,Maribyrnong Secondary College,Maribyrnong,Victoria,3032,School
Australia ,Matthew Flinders Girls Secondary College,Geelong,Victoria,3220,School
Australia ,Melbourne High School,South Yarra,Victoria,3141,School
Australia ,Melton Secondary College,Melton,Victoria,3337,School
Australia ,Mentone Girls Secondary College,Mentone,Victoria,3194,School
Australia ,Mildura Senior College,Mildura,Victoria,3500,School
Australia ,Mirboo North Secondary College,Mirboo North,Victoria,3871,School
Australia ,Monbulk College,Monbulk,Victoria,3793,School
Australia ,Montmorency Secondary College,Montmorency,Victoria,3094,School
Australia ,Mooroolbark College,Mooroolbark,Victoria,3138,School
Australia ,Mordialloc College,Mordialloc,Victoria,3195,School
Australia ,Mount Beauty Secondary College,Mount Beauty,Victoria,3699,School
Australia ,Mount Eliza Secondary College,Mount Eliza,Victoria,3930,School
Australia ,Mount Waverley Secondary College,Mount Waverley,Victoria,3149,School
Australia ,McKinnon Secondary College,Mckinnon,Victoria,3204,School
Australia ,MacRobertson Girls High School,Melbourne,Victoria,3004,School
Australia ,Nathalia Secondary College,Nathalia,Victoria,3638,School
Australia ,Neerim District Secondary College,Neerim South,Victoria,3831,School
Australia ,Newcomb Secondary College,Newcomb,Victoria,3219,School
Australia ,Northcote High School,Northcote,Victoria,3070,School
Australia ,Norwood Secondary College,Ringwood,Victoria,3134,School
Australia ,Numurkah Secondary College,Numurkah,Victoria,3636,School
Australia ,Oberon High School,Armstrong Creek,Victoria,3217,School
Australia ,Orbost Secondary College,Orbost,Victoria,3888,School
Australia ,Pakenham Secondary College,Pakenham,Victoria,3810,School
Australia ,Edenbrook Secondary College,Pakenham,Victoria,3810,School
Australia ,Parkdale Secondary College,Mordialloc,Victoria,3195,School
Australia ,Pascoe Vale Girls Secondary College,Pascoe Vale,Victoria,3044,School
Australia ,Prahran High School,Windsor,Victoria,3181,School
Australia ,Preston High School,Preston,Victoria,3072,School
Australia ,Princes Hill Secondary College,Princes Hill,Victoria,3054,School
Australia ,Homestead Senior Secondary College,Point Cook,Victoria,3030,School
Australia ,Bellarine Secondary College,Drysdale,Victoria,3222,School
Australia ,Red Cliffs Secondary College,Red Cliffs,Victoria,3496,School
Australia ,Ringwood Secondary College,Ringwood,Victoria,3134,School
Australia ,Richmond High School,Richmond,Victoria,3121,School
Australia ,Rochester Secondary College,Rochester,Victoria,3561,School
Australia ,Rosebud Secondary College,Rosebud,Victoria,3939,School
Australia ,Rubicon Outdoor School,Thornton,Victoria,3712,School
Australia ,Rutherglen High School,Rutherglen,Victoria,3685,School
Australia ,Scoresby Secondary College,Scoresby,Victoria,3179,School
Australia ,St Albans Secondary College,St Albans,Victoria,3021,School
Australia ,St Arnaud Secondary College,St Arnaud,Victoria,3478,School
Australia ,Oakwood School,Caulfield North,Victoria,3161,School
Australia ,Strathmore Secondary College,Strathmore,Victoria,3041,School
Australia ,Sunbury College,Sunbury,Victoria,3429,School
Australia ,Sydney Road Community School,Brunswick,Victoria,3056,School
Australia ,Tallangatta Secondary College,Tallangatta,Victoria,3700,School
Australia ,Thomastown Secondary College,Thomastown,Victoria,3074,School
Australia ,Trafalgar High School,Trafalgar,Victoria,3824,School
Australia ,University High School,Parkville,Victoria,3052,School
Australia ,Roxburgh College,Roxburgh Park,Victoria,3064,School
Australia ,Upper Yarra Secondary College,Yarra Junction,Victoria,3797,School
Australia ,Upwey High School,Upwey,Victoria,3158,School
Australia ,Vermont Secondary College,Vermont,Victoria,3133,School
Australia ,Kambrya College,Berwick,Victoria,3806,School
Australia ,Carrum Downs Secondary College,Carrum Downs,Victoria,3201,School
Australia ,Wangaratta High School,Wangaratta,Victoria,3677,School
Australia ,Greenvale Secondary College,Greenvale,Victoria,3059,School
Australia ,Wantirna College,Wantirna,Victoria,3152,School
Australia ,Warracknabeal Secondary College,Warracknabeal,Victoria,3393,School
Australia ,Warrandyte High School,Warrandyte,Victoria,3113,School
Australia ,Wellington Secondary College,Mulgrave,Victoria,3170,School
Australia ,Werribee Secondary College,Werribee,Victoria,3030,School
Australia ,Bairnsdale Secondary College,Bairnsdale,Victoria,3875,School
Australia ,Westall Secondary College,Clayton South,Victoria,3169,School
Australia ,Wheelers Hill Secondary College,Wheelers Hill,Victoria,3150,School
Australia ,Williamstown High School,Williamstown,Victoria,3016,School
Australia ,Wodonga Senior Secondary College,Wodonga,Victoria,3690,School
Australia ,Yarram Secondary College,Yarram,Victoria,3971,School
Australia ,Woodmans Hill Secondary College,Ballarat East,Victoria,3350,School
Australia ,Yea High School,Yea,Victoria,3717,School
Australia ,Glen Eira College,Caulfield East,Victoria,3145,School
Australia ,Craigieburn Secondary College,Craigieburn,Victoria,3064,School
Australia ,Emerald Secondary College,Emerald,Victoria,3782,School
Australia ,Reservoir High School,Reservoir,Victoria,3073,School
Australia ,Hampton Park Secondary College,Hampton Park,Victoria,3976,School
Australia ,Hoppers Crossing Secondary College,Hoppers Crossing,Victoria,3029,School
Australia ,Keilor Downs Secondary College,Keilor Downs,Victoria,3038,School
Australia ,Kurnai College,Morwell,Victoria,3840,School
Australia ,Kurunjang Secondary College,Kurunjang,Victoria,3337,School
Australia ,Lakes Entrance Secondary College,Lakes Entrance,Victoria,3909,School
Australia ,Elisabeth Murdoch College,Langwarrin,Victoria,3910,School
Australia ,Sunbury Downs Secondary College,Sunbury,Victoria,3429,School
Australia ,Forest Hill College,Burwood East,Victoria,3151,School
Australia ,Patterson River Secondary College,Seaford,Victoria,3198,School
Australia ,St Helena Secondary College,Eltham North,Victoria,3095,School
Australia ,Stawell Secondary College,Stawell,Victoria,3380,School
Australia ,Rowville Secondary College,Rowville,Victoria,3178,School
Australia ,Bass Coast College,Wonthaggi,Victoria,3995,School
Australia ,Sandringham College,Sandringham,Victoria,3191,School
Australia ,Fitzroy High School,Fitzroy North,Victoria,3068,School
Australia ,Ashwood High School,Ashwood,Victoria,3147,School
Australia ,Mullauna Secondary College,Mitcham,Victoria,3132,School
Australia ,Leongatha Secondary College,Leongatha,Victoria,3953,School
Australia ,Diamond Valley College,Diamond Creek,Victoria,3089,School
Australia ,Greensborough Secondary College,Greensborough,Victoria,3088,School
Australia ,Ararat Secondary College,Ararat,Victoria,3377,School
Australia ,Mill Park Secondary College,Mill Park,Victoria,3082,School
Australia ,Bacchus Marsh College,Bacchus Marsh,Victoria,3340,School
Australia ,Springside West Secondary College,Fraser Rise,Victoria,3336,School
Australia ,Taylors Lakes Secondary College,Taylors Lakes,Victoria,3038,School
Australia ,Sunshine College,Sunshine West,Victoria,3020,School
Australia ,Wallan Secondary College,Wallan,Victoria,3756,School
Australia ,Thornbury High School,Thornbury,Victoria,3071,School
Australia ,Portland Secondary College,Portland,Victoria,3305,School
Australia ,Copperfield College,Delahey,Victoria,3037,School
Australia ,South Oakleigh Secondary College,Oakleigh South,Victoria,3167,School
Australia ,Swan Hill College,Swan Hill,Victoria,3585,School
Australia ,Traralgon College,Traralgon,Victoria,3844,School
Australia ,Mornington Secondary College,Mornington,Victoria,3931,School
Australia ,Essendon Keilor College,Keilor East,Victoria,3033,School
Australia ,Brunswick Secondary College,Brunswick,Victoria,3056,School
Australia ,Glen Waverley Secondary College,Glen Waverley,Victoria,3150,School
Australia ,Monterey Secondary College,Frankston North,Victoria,3200,School
Australia ,Warrnambool College,Warrnambool,Victoria,3280,School
Australia ,Viewbank College,Viewbank,Victoria,3084,School
Australia ,Noble Park Secondary College,Noble Park,Victoria,3174,School
Australia ,Baimbridge College,Hamilton,Victoria,3300,School
Australia ,Yarra Hills Secondary College,Mooroolbark,Victoria,3138,School
Australia ,Heathmont College,Heathmont,Victoria,3135,School
Australia ,Horsham College,Horsham,Victoria,3402,School
Australia ,Melbourne Girls College,Richmond,Victoria,3121,School
Australia ,Western Heights Secondary College,Hamlyn Heights,Victoria,3215,School
Australia ,Lowanna College,Newborough,Victoria,3825,School
Australia ,Templestowe College,Templestowe Lower,Victoria,3107,School
Australia ,Castlemaine Secondary College,Castlemaine,Victoria,3450,School
Australia ,Warragul Regional College,Warragul,Victoria,3820,School
Australia ,Mount Rowan Secondary College,Wendouree,Victoria,3355,School
Australia ,Sale College,Sale,Victoria,3850,School
Australia ,McClelland Secondary College,Frankston,Victoria,3199,School
Australia ,Lara Secondary College,Lara,Victoria,3212,School
Australia ,Point Cook Senior Secondary College,Point Cook,Victoria,3030,School
Australia ,Coburg High School,Coburg,Victoria,3058,School
Australia ,Tarneit Senior College,Tarneit,Victoria,3029,School
Australia ,Echuca College,Echuca,Victoria,3564,School
Australia ,John Monash Science School,Clayton,Victoria,3800,School
Australia ,Dandenong High School,Dandenong,Victoria,3175,School
Australia ,Hume Central Secondary College,Broadmeadows,Victoria,3047,School
Australia ,Colac Secondary College,Colac,Victoria,3250,School
Australia ,Nossal High School,Berwick,Victoria,3806,School
Australia ,Suzanne Cory High School,Werribee,Victoria,3030,School
Australia ,Keysborough Secondary College,Springvale South,Victoria,3172,School
Australia ,Hallam Senior Secondary College,Hallam,Victoria,3803,School
Australia ,Gleneagles Secondary College,Endeavour Hills,Victoria,3802,School
Australia ,Fountain Gate Secondary College,Narre Warren,Victoria,3805,School
Australia ,Alkira Secondary College,Cranbourne North,Victoria,3977,School
Australia ,Somerville Secondary College,Somerville,Victoria,3912,School
Australia ,Albert Park College,Albert Park,Victoria,3206,School
Australia ,Victoria University Secondary College,Cairnlea,Victoria,3023,School
Australia ,Glenroy Secondary College,Glenroy,Victoria,3046,School
Australia ,John Fawkner Secondary College,Fawkner,Victoria,3060,School
Australia ,William Ruthven Secondary College,Reservoir,Victoria,3073,School
Australia ,Cranbourne East Secondary College,Cranbourne East,Victoria,3977,School
Australia ,Surf Coast Secondary College,Torquay,Victoria,3228,School
Australia ,Officer Secondary College,Officer,Victoria,3809,School
Australia ,Lakeview Senior College,Caroline Springs,Victoria,3023,School
Australia ,Melba Secondary College,Croydon,Victoria,3136,School
Australia ,Centre for Higher Education Studies,South Yarra,Victoria,3141,School
Australia ,Parade College,BUNDOORA,Victoria,3083,School
Australia ,Simonds Catholic College,WEST MELBOURNE,Victoria,3003,School
Australia ,St Marys College Melbourne,ST KILDA EAST,Victoria,3183,School
Australia ,St Patrick's College Ballarat,BALLARAT,Victoria,3350,School
Australia ,Emmanuel College Warrnambool,WARRNAMBOOL,Victoria,3280,School
Australia ,Loreto College,BALLARAT,Victoria,3350,School
Australia ,Assumption College,KILMORE,Victoria,3764,School
Australia ,Catherine McAuley College,BENDIGO,Victoria,3550,School
Australia ,Highview College,MARYBOROUGH,Victoria,3465,School
Australia ,Sacred Heart College,NEWTOWN,Victoria,3220,School
Australia ,St Joseph's College Mildura,MILDURA,Victoria,3500,School
Australia ,Star of the Sea College,BRIGHTON,Victoria,3186,School
Australia ,Damascus College,MOUNT CLEAR,Victoria,3350,School
Australia ,Sacred Heart College,KYNETON,Victoria,3444,School
Australia ,FCJ College,BENALLA,Victoria,3672,School
Australia ,Marian College,ARARAT,Victoria,3377,School
Australia ,Academy of Mary Immaculate,FITZROY,Victoria,3065,School
Australia ,Mount Lilydale Mercy College,LILYDALE,Victoria,3140,School
Australia ,Trinity College Colac Inc,COLAC,Victoria,3250,School
Australia ,Kilbreda College,MENTONE,Victoria,3194,School
Australia ,Padua College,MORNINGTON,Victoria,3931,School
Australia ,Notre Dame College,SHEPPARTON,Victoria,3630,School
Australia ,Sacred Heart College,YARRAWONGA,Victoria,3730,School
Australia ,Bayview College,PORTLAND,Victoria,3305,School
Australia ,St Ignatius College Geelong,DRYSDALE,Victoria,3222,School
Australia ,Catholic Ladies' College Ltd,ELTHAM,Victoria,3095,School
Australia ,St Joseph's College,ECHUCA,Victoria,3564,School
Australia ,St Aloysius College,NORTH MELBOURNE,Victoria,3051,School
Australia ,Catholic College Sale,SALE,Victoria,3850,School
Australia ,Mercy Regional College,CAMPERDOWN,Victoria,3260,School
Australia ,St Columba's College,ESSENDON,Victoria,3040,School
Australia ,Our Lady of Mercy College,HEIDELBERG,Victoria,3084,School
Australia ,St Brigid's College,HORSHAM,Victoria,3400,School
Australia ,Our Lady of Sion College,BOX HILL,Victoria,3128,School
Australia ,Salesian College Sunbury,SUNBURY,Victoria,3429,School
Australia ,Santa Maria College,NORTHCOTE,Victoria,3070,School
Australia ,St Joseph's College Geelong,NEWTOWN,Victoria,3220,School
Australia ,St Bede's College,MENTONE,Victoria,3194,School
Australia ,Siena College Ltd,CAMBERWELL,Victoria,3124,School
Australia ,St Bernard's College,ESSENDON,Victoria,3040,School
Australia ,Whitefriars College Inc,DONVALE,Victoria,3111,School
Australia ,Our Lady of the Sacred Heart College,BENTLEIGH,Victoria,3204,School
Australia ,Salesian College Chadstone,CHADSTONE,Victoria,3148,School
Australia ,Marcellin College,BULLEEN,Victoria,3105,School
Australia ,Marist-Sion College,WARRAGUL,Victoria,3820,School
Australia ,Monivae College,HAMILTON,Victoria,3300,School
Australia ,Killester College,SPRINGVALE,Victoria,3171,School
Australia ,Clonard College,HERNE HILL,Victoria,3218,School
Australia ,Sacred Heart Girls' College,HUGHESDALE,Victoria,3166,School
Australia ,St John's Regional College,DANDENONG,Victoria,3175,School
Australia ,Nagle College,BAIRNSDALE,Victoria,3875,School
Australia ,Emmaus College,VERMONT SOUTH,Victoria,3133,School
Australia ,St Mary of the Angels College,NATHALIA,Victoria,3638,School
Australia ,Aquinas College,RINGWOOD,Victoria,3134,School
Australia ,Ave Maria College,ABERFELDIE,Victoria,3040,School
Australia ,Luther College,CROYDON HILLS,Victoria,3136,School
Australia ,Marian College,SUNSHINE WEST,Victoria,3020,School
Australia ,Mount St Joseph Girls' College,ALTONA,Victoria,3018,School
Australia ,Mater Christi College,BELGRAVE,Victoria,3160,School
Australia ,St Joseph's College,FERNTREE GULLY,Victoria,3156,School
Australia ,Avila College,MOUNT WAVERLEY,Victoria,3149,School
Australia ,Emmanuel College,ALTONA NORTH,Victoria,3025,School
Australia ,St Monica's College,EPPING,Victoria,3076,School
Australia ,Mercy College,COBURG,Victoria,3058,School
Australia ,John Paul College,FRANKSTON,Victoria,3199,School
Australia ,Mazenod College,MULGRAVE,Victoria,3170,School
Australia ,MacKillop Catholic Regional College,WERRIBEE,Victoria,3030,School
Australia ,Marian College,MYRTLEFORD,Victoria,3737,School
Australia ,Nunawading Christian College-Secondary,NUNAWADING,Victoria,3131,School
Australia ,Galen Catholic College,WANGARATTA,Victoria,3677,School
Australia ,Catholic Regional College St Albans,ST ALBANS,Victoria,3021,School
Australia ,St Francis Xavier College,BEACONSFIELD,Victoria,3807,School
Australia ,Catholic College Wodonga,WODONGA,Victoria,3690,School
Australia ,Caroline Chisholm Catholic College,BRAYBROOK,Victoria,3019,School
Australia ,Loyola College,WATSONIA,Victoria,3087,School
Australia ,Catholic Regional College Melton,MELTON,Victoria,3337,School
Australia ,Catholic Regional College Institute of Training,SYDENHAM,Victoria,3037,School
Australia ,Catholic Regional College North Keilor,KEILOR NORTH,Victoria,3036,School
Australia ,Nazareth College,NOBLE PARK NORTH,Victoria,3174,School
Australia ,Mary MacKillop Catholic Regional College,LEONGATHA,Victoria,3953,School
Australia ,St Mary MacKillop College,SWAN HILL,Victoria,3585,School
Australia ,St Peter's College,CLYDE NORTH,Victoria,3978,School
Australia ,Penola Catholic College,BROADMEADOWS,Victoria,3047,School
Australia ,Thomas Carr College,TARNEIT,Victoria,3029,School
Australia ,Alia College,HAWTHORN EAST,Victoria,3123,School
Australia ,Stott's College,MELBOURNE,Victoria,3000,School
Australia ,Lavalla Catholic College,TRARALGON,Victoria,3844,School
Australia ,Ozford College,MELBOURNE,Victoria,3000,School
Australia ,Holmes Grammar School,MELBOURNE,Victoria,3000,School
Australia ,Catholic Regional College Caroline Springs,CAROLINE SPRINGS,Victoria,3023,School
Australia ,Kolbe Catholic College,GREENVALE LAKES,Victoria,3059,School
Australia ,Shepparton ACE Secondary College,SHEPPARTON,Victoria,3630,School
Australia ,SEDA College (Victoria),HAWTHORN EAST,Victoria,3123,School
Australia ,Village High School,RYANSTON,Victoria,3992,School
Australia ,Iona College Geelong,CHARLEMONT,Victoria,3217,School
Australia ,Djerriwarrh Community & Education Services | Djerriwarrh Community College,MELTON,Victoria,3337,School
Australia ,Youth2Industry College,SOUTH MELBOURNE,Victoria,3205,School
Australia ,Ignatius Learning Centre,RICHMOND,Victoria,3121,School
Australia ,Plenty River College,SOUTH MORANG,Victoria,3752,School
Australia ,Mountain District Community College,FERNTREE GULLY,Victoria,3156,School
Australia ,Ability Assist Pty Ltd,TULLAMARINE,Victoria,3043,Community Service
Australia ,Aborigines Advancement League Inc,THORNBURY,Victoria,3071,Community Service
Australia ,Access Health and Community,RICHMOND,Victoria,3121,Community Service
Australia ,Allambi Care Limited,WARNERS BAY,Victoria,2290,Community Service
Australia ,Amicus Community Services Limited,BENDIGO,Victoria,3550,Community Service
Australia ,Anchor Inc,SCORESBY,Victoria,3179,Community Service
Australia ,Anglicare Victoria,COLLINGWOOD,Victoria,3067,Community Service
Australia ,ASTERIA Services Inc,MARYBOROUGH,Victoria,3465,Community Service
Australia ,Australian Childhood Foundation,RICHMOND,Victoria,3067,Community Service
Australia ,Ballarat and District Aboriginal Co-operative Limited,BALLARAT,Victoria,3350,Community Service
Australia ,Ballarat Health Services,BALLARAT,Victoria,3350,Community Service
Australia ,Baptcare Ltd,HAWTHORN,Victoria,3124,Community Service
Australia ,"Barwon Child, Youth & Family",GEELONG,Victoria,3220,Community Service
Australia ,Bass Coast Health,WONTHAGGI,Victoria,3995,Community Service
Australia ,Bayside Community Information & Support Service Inc,HAMPTON EAST,Victoria,3188,Community Service
Australia ,Benalla Rural City Council,BENALLA,Victoria,3672,Community Service
Australia ,Bendigo and District Aboriginal Co-operative Ltd,BENDIGO NORTH,Victoria,3556,Community Service
Australia ,Bendigo Community Health Services Limited,BENDIGO CENTRAL,Victoria,3552,Community Service
Australia ,Bentleigh Bayside Community Health,BENTLEIGH EAST,Victoria,3165,Community Service
Australia ,Berry Street Victoria Incorporated,RICHMOND,Victoria,3121,Community Service
Australia ,Bethany Community Support Inc,GEELONG NORTH,Victoria,3215,Community Service
Australia ,Boorndawan Willam Aboriginal Healing Service Limited,LILYDALE,Victoria,3136,Community Service
Australia ,Brophy Family & Youth Servs Inc,WARRNAMBOOL,Victoria,3280,Community Service
Australia ,Brotherhood of St Laurence,FITZROY,Victoria,3065,Community Service
Australia ,Caroline Chisholm Society,ESSENDON,Victoria,3023,Community Service
Australia ,Castlemaine District Community Health Limited,CASTLEMAINE,Victoria,3450,Community Service
Australia ,Castlemaine Health ,CASTLEMAINE,Victoria,3450,Community Service
Australia ,CatholicCare Victoria,BAKERY HILL,Victoria,3350,Community Service
Australia ,Central Highlands Group Training Inc,BALLARAT,Victoria,3350,Community Service
Australia ,Centre Against Sexual Assault Inc,BENDIGO,Victoria,3552,Community Service
Australia ,Centre Against Violence,WANGARATTA,Victoria,3676,Community Service
Australia ,Centre for Non-Violence,BENDIGO,Victoria,3550,Community Service
Australia ,Child & Family Services Ballarat Inc,BALLARAT,Victoria,3350,Community Service
Australia ,Children Australia Inc,SOUTH MELBOURNE,Victoria,3175,Community Service
Australia ,Children's Protection Society Inc,HEIDELBERG WEST,Victoria,3081,Community Service
Australia ,Christie Centre Inc,MILDURA,Victoria,3500,Community Service
Australia ,City of Darebin,PRESTON,Victoria,3072,Community Service
Australia ,City of Greater Dandenong,DANDENONG,Victoria,3175,Community Service
Australia ,City of Greater Geelong,GEELONG,Victoria,3220,Community Service
Australia ,City of Kingston,MENTONE,Victoria,3192,Community Service
Australia ,Cohealth Ltd,FOOTSCRAY,Victoria,3011,Community Service
Australia ,Colac Area Health,COLAC,Victoria,3250,Community Service
Australia ,Community Living and Respite Services Inc,ECHUCA,Victoria,3564,Community Service
Australia ,Concern Australia Welfare Inc,ROBINSON,Victoria,3019,Community Service
Australia ,Dandenong & District Aborigines Co-operative Limited,DANDENONG,Victoria,3175,Community Service
Australia ,Dhauwurd-Wurrung Elderly and Community Health Service Inc,PORTLAND,Victoria,3305,Community Service
Australia ,Djerriwarrh Employment & Education Services Inc,MELTON,Victoria,3337,Community Service
Australia ,Doncaster Community Care and Counselling Centre Inc,DONCASTER,Victoria,3108,Community Service
Australia ,DPV Health Ltd,MEADOW HEIGHTS,Victoria,3048,Community Service
Australia ,EACH,RINGWOOD,Victoria,3134,Community Service
Australia ,Eastern Domestic Violence Service Inc ,RINGWOOD,Victoria,3134,Community Service
Australia ,Echuca Regional Health,ECHUCA,Victoria,3564,Community Service
Australia ,Emma House Domestic Violence Services Incorporated ,WARRNAMBOOL,Victoria,3280,Community Service
Australia ,ERMHA Limited,DANDENONG SOUTH,Victoria,3175,Community Service
Australia ,Family Life Limited,SANDRINGHAM,Victoria,3191,Community Service
Australia ,Gateway Health Ltd,WANGARATTA,Victoria,3677,Community Service
Australia ,Gateways Support Services Inc,GEELONG NORTH ,Victoria,3215,Community Service
Australia ,Gender Equity West (GenWest) Inc,FOOTSCRAY,Victoria,3011,Community Service
Australia ,Gippsland & East Gippsland Aboriginal Co-operative Ltd,BAIRNSDALE,Victoria,3875,Community Service
Australia ,Gippsland Centre Against Sexual Assault Inc,MORWELL,Victoria,3840,Community Service
Australia ,Gippsland Lakes Complete Health Limited,LAKES ENTRANCE,Victoria,3909,Community Service
Australia ,Good Shepherd Australia New Zealand,MELBOURNE,Victoria,3000,Community Service
Australia ,Goolum - Goolum Aboriginal Co-operative Limited,HORSHAM,Victoria,3402,Community Service
Australia ,Goulburn Valley Family Care Inc,SHEPPARTON,Victoria,3630,Community Service
Australia ,Grampains Community Health ,STAWELL,Victoria,3380,Community Service
Australia ,Gunditjmara Aboriginal Co-operative Limited,WARRNAMBOOL,Victoria,3280,Community Service
Australia ,Hampton Park Care Group Inc,HAMPTON PARK,Victoria,3976,Community Service
Australia ,Inner Melbourne VET Cluster Inc,SOUTH MELBOURNE,Victoria,3205,Community Service
Australia ,IPC Health Ltd,DEER PARK,Victoria,3023,Community Service
Australia ,Jesuit Social Services Limited,RICHMOND,Victoria,3121,Community Service
Australia ,Jewish Care (Victoria) Inc,ST KILDA ROAD CENTRAL,Victoria,3004,Community Service
Australia ,Jigsaw Blue Australia Pty Ltd,DONCASTER EAST,Victoria,3074,Community Service
Australia ,Junction Support Services Inc,WANGARATTA,Victoria,3677,Community Service
Australia ,Key Assets The Children's Services Provider (Australia) Limited,CLAYTON,Victoria,3168,Community Service
Australia ,Kyabram Community & Learning Centre Inc,KYABRAM,Victoria,3620,Community Service
Australia ,KYM (Victoria) Inc,BAYSWATER,Victoria,3153,Community Service
Australia ,Latrobe Community Health Service Limited,MORWELL,Victoria,3840,Community Service
Australia ,Life Without Barriers,NARRE WARREN SOUTH,Victoria,3977,Community Service
Australia ,Lighthouse Foundation,RICHMOND,Victoria,3121,Community Service
Australia ,Loddon Mallee Housing Services Limited,BENDIGO,Victoria,3550,Community Service
Australia ,MacKillop Family Services Limited,SOUTH MELBOURNE,Victoria,3205,Community Service
Australia ,Mallee Accommodation and Support Program Limited,MILDURA,Victoria,3500,Community Service
Australia ,Mallee District Aboriginal Services Limited,MILDURA,Victoria,3500,Community Service
Australia ,Mallee Family Care Inc,MILDURA,Victoria,3500,Community Service
Australia ,Mallee Sexual Assault Unit Inc,MILDURA,Victoria,3500,Community Service
Australia ,Mansfield Autism Statewide Services,MANSFIELD,Victoria,3722,Community Service
Australia ,Mansfield Shire Council,MANSFIELD,Victoria,3724,Community Service
Australia ,Melbourne City Council,MELBOURNE,Victoria,3000,Community Service
Australia ,Melbourne City Mission,MELBOURNE,Victoria,8010,Community Service
Australia ,Melton City Council,MELTON,Victoria,3337,Community Service
Australia ,Mercy Hospitals Victoria Ltd ,RICHMOND,Victoria,3121,Community Service
Australia ,Merri Community Health Services Limited,BRUNSWICK,Victoria,3056,Community Service
Australia ,Merriwa Industries Ltd,WANGARATTA,Victoria,3677,Community Service
Australia ,MH&R Holdings Pty Ltd,RICHMOND,Victoria,3121,Community Service
Australia ,Mind Australia Limited,HEIDELBERG,Victoria,3084,Community Service
Australia ,Mission Australia,SOUTH MELBOURNE,Victoria,3205,Community Service
Australia ,MOIRA Limited,SCORESBY,Victoria,3179,Community Service
Australia ,Monash City Council,GLEN WAVERLEY,Victoria,3150,Community Service
Australia ,Monash Health,CLAYTON SOUTH,Victoria,3168,Community Service
Australia ,Moonee Valley City Council,MOONEE PONDS,Victoria,3039,Community Service
Australia ,MPOWER Inc,WARRNAMBOOL,Victoria,3280,Community Service
Australia ,Multicultural Community Services Geelong Inc (MCSG),NORTH GEELONG,Victoria,3215,Community Service
Australia ,Mungabareena Aboriginal Corporation,WODONGA,Victoria,3690,Community Service
Australia ,Murray Valley Aboriginal Co-operative,ROBINVALE,Victoria,3549,Community Service
Australia ,Nexus Primary Health,BROADFORD,Victoria,3658,Community Service
Australia ,Njernda Aboriginal Corporation,ECHUCA,Victoria,3564,Community Service
Australia ,North East Support and Action for Youth Incorporated,WANGARATTA,Victoria,3677,Community Service
Australia ,ONCALL Group Australia Pty Ltd,SURREY HILLS,Victoria,3127,Community Service
Australia ,Peninsula Health,FRANKSTON,Victoria,3199,Community Service
Australia ,Port Phillip City Council,ST KILDA,Victoria,3162,Community Service
Australia ,Primary Care Connect,SHEPPARTON,Victoria,3630,Community Service
Australia ,Quantum Support Services Inc,MORWELL,Victoria,3840,Community Service
Australia ,Ramahyuck District Aboriginal Corporation,SALE,Victoria,3850,Community Service
Australia ,Rumbalara Aboriginal Co-operative Limited,MOOROOPNA,Victoria,3630,Community Service
Australia ,Safe Places Community Services Limited,WOOLLOONGABBA,Victoria,4001,Community Service
Australia ,Settlement Services International Limited,SYDNEY,Victoria,2131,Community Service
Australia ,Sexual Assault and Family Violence Centre Inc,GEELONG WEST,Victoria,3220,Community Service
Australia ,South West Healthcare,WARRNAMBOOL,Victoria,3280,Community Service
Australia ,Sunbury Community Health Centre Limited ,SUNBURY,Victoria,3429,Community Service
Australia ,Sunraysia Community Health Services Limited,MILDURA,Victoria,3500,Community Service
Australia ,Sunraysia Residential Services Inc,MILDURA,Victoria,3500,Community Service
Australia ,The Bridge Youth Service Inc,SHEPPARTON,Victoria,3632,Community Service
Australia ,The Queen Elizabeth Centre,NOBLE PARK,Victoria,3174,Community Service
Australia ,The Royal Children’s Hospital,PARKVILLE,Victoria,3052,Community Service
Australia ,The Salvation Army (Victoria) Property Trust,BLACKBURN,Victoria,3130,Community Service
Australia ,The Trustee for CareChoice Business Trust,CLAYTON SOUTH,Victoria,3168,Community Service
Australia ,Tweddle Child & Family Health Service,FOOTSCRAY,Victoria,3011,Community Service
Australia ,Uniting (Victoria and Tasmania) Limited,MELBOURNE,Victoria,3000,Community Service
Australia ,Upper Murray Family Care Inc,WODONGA,Victoria,3689,Community Service
Australia ,Victorian Aboriginal Child Care Agency Co-operative Limited,NORTHCOTE,Victoria,3070,Community Service
Australia ,Victorian Aboriginal Community Services Association Limited,NORTHCOTE,Victoria,3070,Community Service
Australia ,Victorian Person Centred Services Limited,CARNEGIE,Victoria,3163,Community Service
Australia ,Warrnambool City Council,WARRNAMBOOL,Victoria,3280,Community Service
Australia ,Wathaurong Aboriginal Co-Operative Ltd,NORTH GEELONG,Victoria,3215,Community Service
Australia ,West Gippsland Healthcare Group,WARRAGUL,Victoria,3820,Community Service
Australia ,Western Health,FOOTSCRAY,Victoria,3011,Community Service
Australia ,Westgate Community Initiatives Group Incorporated,FOOTSCRAY,Victoria,3011,Community Service
Australia ,Whitelion Youth Agency Ltd,WEST MELBOURNE,Victoria,3003,Community Service
Australia ,Winda-Mara Aboriginal Corporation,HEYWOOD,Victoria,3304,Community Service
Australia ,Windermere Child and Family Services Inc,NARRE WARREN,Victoria,3805,Community Service
Australia ,Wodonga City Council,WODONGA,Victoria,3689,Community Service
Australia ,Workways Australia Limited,BAIRNSDALE,Victoria,3875,Community Service
Australia ,Yarra City Council,RICHMOND,Victoria,3067,Community Service
Australia ,Yarram & District Health Service,YARRAM,Victoria,3971,Community Service
Australia ,Yoowinna Wurnalung Aboriginal Healing Service Limited ,LAKES ENTRANCE,Victoria,3909,Community Service
Australia ,YSAS Pty Ltd,FITZROY,Victoria,3065,Community Service
Australia ,Zoe Support Australia,MILDURA,Victoria,3500,Community Service
Australia ,Drummond Street Services,CARLTON,Victoria,3053,Community Service